{
  "type": "FeatureCollection",
  "features": [
    {
      "type": "Feature",
      "properties": {
        "norad_id": 15362,
        "name": "NOVA 3",
        "group": "nnss",
        "lat": 32.561292695660626,
        "lon": 80.54580397436202,
        "alt_km": 1168.0623899160819,
        "timestamp": "2025-12-20T07:33:51.081559+00:00",
        "meta_object_name": "NOVA 3",
        "meta_object_id": "1984-110A",
        "meta_epoch": "2025-12-19T11:29:40.293312",
        "meta_mean_motion": 13.23045275,
        "meta_eccentricity": 0.0030034,
        "meta_inclination": 90.1221,
        "meta_ra_of_asc_node": 80.614,
        "meta_arg_of_pericenter": 312.622,
        "meta_mean_anomaly": 59.034,
        "meta_ephemeris_type": 0,
        "meta_classification_type": "U",
        "meta_norad_cat_id": 15362,
        "meta_element_set_no": 999,
        "meta_rev_at_epoch": 98788,
        "meta_bstar": 9.0213e-05,
        "meta_mean_motion_dot": 4.6e-07,
        "meta_mean_motion_ddot": 0,
        "tle_line1": "1 15362U 84110A   25353.47893858  .00000046  00000+0  90213-4 0  9999",
        "tle_line2": "2 15362  90.1221  80.6140 0030034 312.6220  59.0340 13.23045275987882"
      },
      "geometry": {
        "type": "Point",
        "coordinates": [
          80.54580397436202,
          32.561292695660626
        ]
      }
    },
    {
      "type": "Feature",
      "properties": {
        "norad_id": 15935,
        "name": "OSCAR 30",
        "group": "nnss",
        "lat": 70.52107246812473,
        "lon": -79.56049921474263,
        "alt_km": 1028.9948605128056,
        "timestamp": "2025-12-20T07:33:51.081569+00:00",
        "meta_object_name": "OSCAR 30",
        "meta_object_id": "1985-066A",
        "meta_epoch": "2025-12-19T13:06:55.636128",
        "meta_mean_motion": 13.3607924,
        "meta_eccentricity": 0.0169224,
        "meta_inclination": 90.1656,
        "meta_ra_of_asc_node": 99.9585,
        "meta_arg_of_pericenter": 64.9065,
        "meta_mean_anomaly": 307.9619,
        "meta_ephemeris_type": 0,
        "meta_classification_type": "U",
        "meta_norad_cat_id": 15935,
        "meta_element_set_no": 999,
        "meta_rev_at_epoch": 96544,
        "meta_bstar": 9.8407e-05,
        "meta_mean_motion_dot": 6.5e-07,
        "meta_mean_motion_ddot": 0,
        "tle_line1": "1 15935U 85066A   25353.54647727  .00000065  00000+0  98407-4 0  9990",
        "tle_line2": "2 15935  90.1656  99.9585 0169224  64.9065 307.9619 13.36079240965449"
      },
      "geometry": {
        "type": "Point",
        "coordinates": [
          -79.56049921474263,
          70.52107246812473
        ]
      }
    },
    {
      "type": "Feature",
      "properties": {
        "norad_id": 15936,
        "name": "OSCAR 24",
        "group": "nnss",
        "lat": -1.433394464979357,
        "lon": -87.56515101705902,
        "alt_km": 1173.8485343407656,
        "timestamp": "2025-12-20T07:33:51.081580+00:00",
        "meta_object_name": "OSCAR 24",
        "meta_object_id": "1985-066B",
        "meta_epoch": "2025-12-19T20:29:27.143232",
        "meta_mean_motion": 13.35936665,
        "meta_eccentricity": 0.01703597,
        "meta_inclination": 90.1791,
        "meta_ra_of_asc_node": 92.4312,
        "meta_arg_of_pericenter": 70.4919,
        "meta_mean_anomaly": 51.325,
        "meta_ephemeris_type": 0,
        "meta_classification_type": "U",
        "meta_norad_cat_id": 15936,
        "meta_element_set_no": 999,
        "meta_rev_at_epoch": 96738,
        "meta_bstar": 9.1695961e-05,
        "meta_mean_motion_dot": 6.1e-07,
        "meta_mean_motion_ddot": 0,
        "tle_line1": "1 15936U 85066B   25353.85378638  .00000061  00000+0  91696-4 0  9996",
        "tle_line2": "2 15936  90.1791  92.4312 0170359  70.4919  51.3250 13.35936665967385"
      },
      "geometry": {
        "type": "Point",
        "coordinates": [
          -87.56515101705902,
          -1.433394464979357
        ]
      }
    },
    {
      "type": "Feature",
      "properties": {
        "norad_id": 17070,
        "name": "POLAR BEAR",
        "group": "nnss",
        "lat": 5.657418564626189,
        "lon": -176.4917001927768,
        "alt_km": 983.7285450499658,
        "timestamp": "2025-12-20T07:33:51.081590+00:00",
        "meta_object_name": "POLAR BEAR",
        "meta_object_id": "1986-088A",
        "meta_epoch": "2025-12-19T23:22:08.257152",
        "meta_mean_motion": 13.75252266,
        "meta_eccentricity": 0.00412623,
        "meta_inclination": 89.617,
        "meta_ra_of_asc_node": 183.4841,
        "meta_arg_of_pericenter": 98.4165,
        "meta_mean_anomaly": 18.2828,
        "meta_ephemeris_type": 0,
        "meta_classification_type": "U",
        "meta_norad_cat_id": 17070,
        "meta_element_set_no": 999,
        "meta_rev_at_epoch": 96078,
        "meta_bstar": 9.4820669e-05,
        "meta_mean_motion_dot": 1.03e-06,
        "meta_mean_motion_ddot": 0,
        "tle_line1": "1 17070U 86088A   25353.97370668  .00000103  00000+0  94821-4 0  9990",
        "tle_line2": "2 17070  89.6170 183.4841 0041262  98.4165  18.2828 13.75252266960783"
      },
      "geometry": {
        "type": "Point",
        "coordinates": [
          -176.4917001927768,
          5.657418564626189
        ]
      }
    },
    {
      "type": "Feature",
      "properties": {
        "norad_id": 18361,
        "name": "OSCAR 27",
        "group": "nnss",
        "lat": 23.425191173003157,
        "lon": -100.2820861040006,
        "alt_km": 1035.9630475763015,
        "timestamp": "2025-12-20T07:33:51.081601+00:00",
        "meta_object_name": "OSCAR 27",
        "meta_object_id": "1987-080A",
        "meta_epoch": "2025-12-19T12:55:35.147136",
        "meta_mean_motion": 13.44908026,
        "meta_eccentricity": 0.010346,
        "meta_inclination": 90.3741,
        "meta_ra_of_asc_node": 79.5267,
        "meta_arg_of_pericenter": 204.1781,
        "meta_mean_anomaly": 155.4493,
        "meta_ephemeris_type": 0,
        "meta_classification_type": "U",
        "meta_norad_cat_id": 18361,
        "meta_element_set_no": 999,
        "meta_rev_at_epoch": 87648,
        "meta_bstar": 0.00015116,
        "meta_mean_motion_dot": 1e-06,
        "meta_mean_motion_ddot": 0,
        "tle_line1": "1 18361U 87080A   25353.53860124  .00000100  00000+0  15116-3 0  9996",
        "tle_line2": "2 18361  90.3741  79.5267 0103460 204.1781 155.4493 13.44908026876489"
      },
      "geometry": {
        "type": "Point",
        "coordinates": [
          -100.2820861040006,
          23.425191173003157
        ]
      }
    },
    {
      "type": "Feature",
      "properties": {
        "norad_id": 18362,
        "name": "OSCAR 29",
        "group": "nnss",
        "lat": 23.990062530002263,
        "lon": -99.81781156634587,
        "alt_km": 1063.914752500259,
        "timestamp": "2025-12-20T07:33:51.081611+00:00",
        "meta_object_name": "OSCAR 29",
        "meta_object_id": "1987-080B",
        "meta_epoch": "2025-12-19T12:58:39.035712",
        "meta_mean_motion": 13.44449557,
        "meta_eccentricity": 0.010432,
        "meta_inclination": 90.3752,
        "meta_ra_of_asc_node": 79.9861,
        "meta_arg_of_pericenter": 227.4328,
        "meta_mean_anomaly": 143.48,
        "meta_ephemeris_type": 0,
        "meta_classification_type": "U",
        "meta_norad_cat_id": 18362,
        "meta_element_set_no": 999,
        "meta_rev_at_epoch": 87601,
        "meta_bstar": 0.00013403,
        "meta_mean_motion_dot": 8.8e-07,
        "meta_mean_motion_ddot": 0,
        "tle_line1": "1 18362U 87080B   25353.54072958  .00000088  00000+0  13403-3 0  9990",
        "tle_line2": "2 18362  90.3752  79.9861 0104320 227.4328 143.4800 13.44449557876014"
      },
      "geometry": {
        "type": "Point",
        "coordinates": [
          -99.81781156634587,
          23.990062530002263
        ]
      }
    },
    {
      "type": "Feature",
      "properties": {
        "norad_id": 19070,
        "name": "OSCAR 23",
        "group": "nnss",
        "lat": -20.145933494681444,
        "lon": -163.49021698073852,
        "alt_km": 1051.2422050456007,
        "timestamp": "2025-12-20T07:33:51.081621+00:00",
        "meta_object_name": "OSCAR 23",
        "meta_object_id": "1988-033A",
        "meta_epoch": "2025-12-19T20:34:59.428992",
        "meta_mean_motion": 13.27788361,
        "meta_eccentricity": 0.01901144,
        "meta_inclination": 90.3205,
        "meta_ra_of_asc_node": 16.6132,
        "meta_arg_of_pericenter": 160.1584,
        "meta_mean_anomaly": 12.6618,
        "meta_ephemeris_type": 0,
        "meta_classification_type": "U",
        "meta_norad_cat_id": 19070,
        "meta_element_set_no": 999,
        "meta_rev_at_epoch": 82347,
        "meta_bstar": 0.00019025891,
        "meta_mean_motion_dot": 1.04e-06,
        "meta_mean_motion_ddot": 0,
        "tle_line1": "1 19070U 88033A   25353.85763228  .00000104  00000+0  19026-3 0  9993",
        "tle_line2": "2 19070  90.3205  16.6132 0190114 160.1584  12.6618 13.27788361823472"
      },
      "geometry": {
        "type": "Point",
        "coordinates": [
          -163.49021698073852,
          -20.145933494681444
        ]
      }
    }
  ]
}